algorithm,apogee,argOfPerigee,bStar,classificationMarking,elset_created_at,elset_created_by,dataMode,eccentricity,idElset,idOnOrbit,inclination,line1,line2,meanAnomaly,meanMotion,meanMotionDDot,meanMotionDot,origNetwork,perigee,period,raan,revNo,satNo,semiMajorAxis,source,__START_AT,__END_AT,COUNTRY,LAUNCH,LAUNCH_NUM,LAUNCH_PIECE,NORAD_CAT_ID,OBJECT_ID,OBJECT_NAME,OBJECT_NUMBER,OBJECT_TYPE,RCS_SIZE,SATNAME,SITE,satcat_current_fetch_date
SGP4,6866.562,262.9952,0.0012422,U,2024-02-01T05:05:15.743Z,system.ob-ingest,REAL,7.01E-5,a8ba468f-8891-43c2-bc87-a8083e10d3ce,58622,43.0005,1 58622U 23203E   24031.60141707 +.00032415 +00000+0 +12422-2 0 99995,2 58622  43.0005  79.5815 0000701 262.9952  97.0819 15.25946716006157,97.0819,15.25946716,0.0,3.2415E-4,OPS1,6865.6,94.368,79.5815,615,58622,6866.081,18th SPCS,2024-01-31T14:26:02.434848Z,2024-02-01T10:51:26.210880Z,US,2023-12-23,203,E,58622,2023-203E,STARLINK-31133,58622,PAYLOAD,LARGE,STARLINK-31133,AFETR,2024-08-21
SGP4,6738.599,121.6021,6.2315E-5,U,2024-01-31T23:05:17.653Z,system.ob-ingest,REAL,9.84E-5,0dcd44cc-7da8-4295-9829-23f5470cbcd6,58708,53.1574,1 58708U 24002D   24031.75093936 +.00006959 +00000+0 +62315-4 0 99996,2 58708  53.1574 107.0349 0000984 121.6021 238.5093 15.69684886005672,238.5093,15.69684886,0.0,6.959E-5,OPS1,6737.273,91.738,107.0349,567,58708,6737.936,18th SPCS,2024-01-31T18:01:21.160704Z,2024-02-01T10:49:53.201280Z,US,2024-01-03,2,D,58708,2024-002D,STARLINK-11079,58708,PAYLOAD,LARGE,STARLINK-11079,AFWTR,2024-08-21
SGP4,6733.743,288.8331,-0.01445,U,2024-02-01T05:05:15.754Z,system.ob-ingest,REAL,1.388E-4,59a4af01-7ea8-4d4d-ac36-48a25deba5e1,58800,43.0007,1 58800U 24012P   24031.91667824 -.01682646 +00000+0 -14450-1 0 99991,2 58800  43.0007 175.8056 0001388 288.8331 247.0123 15.71478066003762,247.0123,15.71478066,0.0,-0.01682646,OPS1,6731.874,91.633,175.8056,376,58800,6732.809,18th SPCS,2024-01-31T22:00:00.999936Z,2024-02-01T06:00:00.999648Z,US,2024-01-15,12,P,58800,2024-012P,STARLINK-31191,58800,PAYLOAD,LARGE,STARLINK-31191,AFETR,2024-08-21
SGP4,6560.4,210.8041,0.0041432,U,2022-10-24T04:05:09.104Z,system.ob-ingest,REAL,7.129E-4,c6e73482-35ce-4716-8d0e-8339cab7840c,44238,52.9908,1 44238U 19029D   22297.11509713 +.34454348 +12142-4 +41432-2 0 99995,2 44238  52.9908 211.8922 0007129 210.8041 289.1727 16.35579023189843,289.1727,16.35579023,1.2142E-5,0.34454348,OPS1,6551.053,88.042,211.8922,18984,44238,6555.726,18th SPCS,2022-10-24T02:45:44.392032Z,"",US,2019-05-24,29,D,44238,2019-029D,STARLINK-24,44238,PAYLOAD,LARGE,STARLINK-24,AFETR,2024-08-21
SGP4,6923.475,102.5896,7.3813E-4,U,2024-01-31T23:05:15.004Z,system.ob-ingest,REAL,9.44E-5,e2db8606-24e7-4d01-b2de-829a15ddd7eb,44937,53.055,1 44937U 20001Z   24031.41972867 +.00010977 +00000+0 +73813-3 0 99991,2 44937  53.0550 175.3959 0000944 102.5896 257.5199 15.07224826224333,257.5199,15.07224826,0.0,1.0977E-4,OPS1,6922.168,95.54,175.3959,22433,44937,6922.822,18th SPCS,2024-01-31T10:04:24.557088Z,2024-02-01T17:54:08.102304Z,US,2020-01-07,1,Z,44937,2020-001Z,STARLINK-1079,44937,PAYLOAD,LARGE,STARLINK-1079,AFETR,2024-08-21
SGP4,6926.32,80.6396,4.3567E-5,U,2024-01-31T23:05:15.112Z,system.ob-ingest,REAL,1.368E-4,e948cd83-e941-4954-ba01-65a4f9d32f67,44967,53.0563,1 44967U 20001BF  24031.73213556 +.00000367 +00000+0 +43567-4 0 99998,2 44967  53.0563 154.1149 0001368  80.6396 279.4747 15.06392028224665,279.4747,15.06392028,0.0,3.67E-6,OPS1,6924.426,95.593,154.1149,22466,44967,6925.373,18th SPCS,2024-01-31T17:34:16.512384Z,2024-02-01T11:05:12.015168Z,US,2020-01-07,1,BF,44967,2020-001BF,STARLINK-1089,44967,PAYLOAD,LARGE,STARLINK-1089,AFETR,2024-08-21
SGP4,6926.408,91.0014,1.1329E-4,U,2024-02-01T07:05:13.800Z,system.ob-ingest,REAL,1.546E-4,e5069574-1530-40a0-87db-a665eb78b04a,45182,53.0544,1 45182U 20012E   24031.99014023 +.00001406 +00000+0 +11329-3 0 99991,2 45182  53.0544 232.9535 0001546  91.0014 269.1152 15.06403540218761,269.1152,15.0640354,0.0,1.406E-5,OPS1,6924.267,95.592,232.9535,21876,45182,6925.338,18th SPCS,2024-01-31T23:45:48.115872Z,2024-02-01T22:03:22.247136Z,US,2020-02-17,12,E,45182,2020-012E,STARLINK-1201,45182,PAYLOAD,LARGE,STARLINK-1201,AFETR,2024-08-21
SGP4,6906.462,29.5255,6.1417E-4,U,2024-02-01T05:05:13.623Z,system.ob-ingest,REAL,2.145E-4,183ba600-aaa2-4eb9-a679-2c6e6e2c3dbd,45232,53.054,1 45232U 20012BG  24031.88960659 +.00010706 +00000+0 +61417-3 0 99996,2 45232  53.0540 209.4155 0002145  29.5255 330.5858 15.13070180219731,330.5858,15.1307018,0.0,1.0706E-4,OPS1,6903.499,95.171,209.4155,21973,45232,6904.981,18th SPCS,2024-01-31T21:21:02.009376Z,2024-02-02T14:34:03.376992Z,US,2020-02-17,12,BG,45232,2020-012BG,STARLINK-1235,45232,PAYLOAD,LARGE,STARLINK-1235,AFETR,2024-08-21
SGP4,6926.281,80.213,1.4816E-5,U,2024-01-31T23:05:14.910Z,system.ob-ingest,REAL,1.289E-4,3f020b02-cfb5-4c5c-a452-fb635c9a35e1,45377,53.0568,1 45377U 20019T   24031.25849605 -.00000061 +00000+0 +14816-4 0 99997,2 45377  53.0568  16.2404 0001289  80.2130 279.9005 15.06387122213919,279.9005,15.06387122,0.0,-6.1E-7,OPS1,6924.495,95.593,16.2404,21391,45377,6925.388,18th SPCS,2024-01-31T06:12:14.058720Z,2024-02-01T02:54:14.208192Z,US,2020-03-18,19,T,45377,2020-019T,STARLINK-1305,45377,PAYLOAD,LARGE,STARLINK-1305,AFETR,2024-08-21
SGP4,6926.29,99.474,5.5782E-4,U,2024-02-01T05:05:14.275Z,system.ob-ingest,REAL,1.35E-4,1385f230-8bb8-4afc-8996-39ffab13b90c,45384,53.0559,1 45384U 20019AA  24031.90442649 +.00008036 +00000+0 +55782-3 0 99999,2 45384  53.0559 353.3256 0001350  99.4740 260.6402 15.06397729214288,260.6402,15.06397729,0.0,8.036E-5,OPS1,6924.421,95.592,353.3256,21428,45384,6925.356,18th SPCS,2024-01-31T21:42:22.448736Z,2024-02-01T02:28:59.426976Z,US,2020-03-18,19,AA,45384,2020-019AA,STARLINK-1267,45384,PAYLOAD,LARGE,STARLINK-1267,AFETR,2024-08-21
SGP4,6929.645,168.1697,-0.012639,U,2024-01-31T23:05:15.086Z,system.ob-ingest,REAL,2.664E-4,9b573908-ddad-47e2-878a-0ffb5d31bda0,45659,53.0522,1 45659U 20035C   24031.73258975 -.00179942 +00000+0 -12639-1 0 99999,2 45659  53.0522 274.2816 0002664 168.1697 191.9355 15.05600778202572,191.9355,15.05600778,0.0,-0.00179942,OPS1,6925.954,95.643,274.2816,20257,45659,6927.799,18th SPCS,2024-01-31T17:34:55.754400Z,2024-02-01T06:00:00.999648Z,US,2020-06-04,35,C,45659,2020-035C,STARLINK-1442,45659,PAYLOAD,LARGE,STARLINK-1442,AFETR,2024-08-21
SGP4,6926.107,91.125,2.9891E-5,U,2024-01-31T05:05:14.085Z,system.ob-ingest,REAL,1.109E-4,14ad3cf1-890f-4f78-aef4-36cc5cd54d94,45679,53.0525,1 45679U 20035Y   24030.88160384 +.00000164 +00000+0 +29891-4 0 99990,2 45679  53.0525 267.9295 0001109  91.1250 268.9866 15.06403267202993,268.9866,15.06403267,0.0,1.64E-6,OPS1,6924.571,95.592,267.9295,20299,45679,6925.339,18th SPCS,2024-01-30T21:09:30.571776Z,2024-02-01T14:33:32.438016Z,US,2020-06-04,35,Y,45679,2020-035Y,STARLINK-1394,45679,PAYLOAD,LARGE,STARLINK-1394,AFETR,2024-08-21
SGP4,6926.292,89.2735,2.4807E-4,U,2024-01-31T23:05:15.244Z,system.ob-ingest,REAL,1.399E-4,5baf83c3-53f5-43b5-a3d2-03e90ec4a0de,45710,53.0527,1 45710U 20035BF  24031.60220171 +.00003416 +00000+0 +24807-3 0 99992,2 45710  53.0527 244.6940 0001399  89.2735 270.8414 15.06408168202971,270.8414,15.06408168,0.0,3.416E-5,OPS1,6924.355,95.592,244.694,20297,45710,6925.324,18th SPCS,2024-01-31T14:27:10.227744Z,2024-02-01T14:20:15.673632Z,US,2020-06-04,35,BF,45710,2020-035BF,STARLINK-1423,45710,PAYLOAD,LARGE,STARLINK-1423,AFETR,2024-08-21
SGP4,6926.486,114.505,-6.2082E-6,U,2024-01-31T15:05:12.997Z,system.ob-ingest,REAL,1.624E-4,25521d41-b527-4e3c-9af7-c47c94d779f0,45769,53.0544,1 45769U 20038AR  24031.51279827 -.00000374 +00000+0 -62082-5 0 99992,2 45769  53.0544  85.1253 0001624 114.5050 245.6108 15.06395990201520,245.6108,15.0639599,0.0,-3.74E-6,OPS1,6924.236,95.592,85.1253,20152,45769,6925.361,18th SPCS,2024-01-31T12:18:25.770528Z,2024-02-01T09:00:25.887168Z,US,2020-06-13,38,AR,45769,2020-038AR,STARLINK-1459,45769,PAYLOAD,LARGE,STARLINK-1459,AFETR,2024-08-21
SGP4,6926.449,98.3505,9.7566E-5,U,2024-01-31T23:05:15.116Z,system.ob-ingest,REAL,1.61E-4,42e6d961-7a63-44cc-b217-b2770a7386db,45771,53.0545,1 45771U 20038AT  24031.30732779 +.00001172 +00000+0 +97566-4 0 99991,2 45771  53.0545  46.0147 0001610  98.3505 261.7666 15.06404596200936,261.7666,15.06404596,0.0,1.172E-5,OPS1,6924.219,95.592,46.0147,20093,45771,6925.334,18th SPCS,2024-01-31T07:22:33.121056Z,2024-02-01T04:04:33.691296Z,US,2020-06-13,38,AT,45771,2020-038AT,STARLINK-1463,45771,PAYLOAD,LARGE,STARLINK-1463,AFETR,2024-08-21
SGP4,6926.086,77.3981,-1.7229E-4,U,2024-01-31T07:05:13.122Z,system.ob-ingest,REAL,1.017E-4,544516e3-6dec-4941-b566-e84a03f05f40,46053,53.0542,1 46053U 20055AC  24031.12671756 -.00002846 +00000+0 -17229-3 0 99999,2 46053  53.0542 326.8314 0001017  77.3981 282.7122 15.06389032192676,282.7122,15.06389032,0.0,-2.846E-5,OPS1,6924.678,95.593,326.8314,19267,46053,6925.382,18th SPCS,2024-01-31T03:02:28.397184Z,2024-02-01T02:55:35.253984Z,US,2020-08-07,55,AC,46053,2020-055AC,STARLINK-1543,46053,PAYLOAD,LARGE,STARLINK-1543,AFETR,2024-08-21
SGP4,6926.416,86.1933,-3.5637E-5,U,2024-01-31T23:05:14.964Z,system.ob-ingest,REAL,1.496E-4,684db94b-8433-4d8d-8083-ceed0b0ad72e,46173,53.0546,1 46173U 20057BJ  24031.73489192 -.00000812 +00000+0 -35637-4 0 99997,2 46173  53.0546 164.1023 0001496  86.1933 273.9227 15.06389820190973,273.9227,15.0638982,0.0,-8.12E-6,OPS1,6924.344,95.593,164.1023,19097,46173,6925.38,18th SPCS,2024-01-31T17:38:14.661888Z,2024-02-01T14:20:15.248544Z,US,2020-08-18,57,BJ,46173,2020-057BJ,STARLINK-1640,46173,PAYLOAD,LARGE,STARLINK-1640,AFETR,2024-08-21
SGP4,6926.25,88.4753,1.4092E-4,U,2024-02-01T05:05:13.890Z,system.ob-ingest,REAL,1.306E-4,b9828e88-8961-4799-b1fc-eb486d953c33,46335,53.0532,1 46335U 20062L   24031.93209058 +.00001818 +00000+0 +14092-3 0 99992,2 46335  53.0532 223.2142 0001306  88.4753 271.6386 15.06401042188599,271.6386,15.06401042,0.0,1.818E-5,OPS1,6924.441,95.592,223.2142,18859,46335,6925.345,18th SPCS,2024-01-31T22:22:12.626112Z,2024-02-01T14:17:36.580128Z,US,2020-09-03,62,L,46335,2020-062L,STARLINK-1727,46335,PAYLOAD,LARGE,STARLINK-1727,AFETR,2024-08-21
